GLOBALSTAR M084         
1 38040U 11080A   25153.20196174 -.00000087  00000+0  91235-4 0  9990
2 38040  52.0005  94.0925 0000743  30.3506 108.6783 12.62266432621050
GLOBALSTAR M080         
1 38041U 11080B   25152.91458890 -.00000093  00000+0  59726-4 0  9990
2 38041  52.0055  96.5535 0000699  89.2441 313.1402 12.62263250620865
GLOBALSTAR M082         
1 38042U 11080C   25152.93833207 -.00000085  00000+0  10260-3 0  9992
2 38042  52.0093  51.9413 0000833  95.8104 344.9434 12.62266315621578
GLOBALSTAR M092         
1 38043U 11080D   25152.69436997 -.00000108  00000+0 -24116-4 0  9994
2 38043  52.0066 143.0600 0000233  41.5797 130.1336 12.62264345619990
GLOBALSTAR M090         
1 38044U 11080E   25152.94983727 -.00000074  00000+0  16681-3 0  9999
2 38044  52.0138  45.7377 0000666  82.3920 291.3187 12.62273303621699
GLOBALSTAR M086         
1 38045U 11080F   25152.91206969 -.00000089  00000+0  80484-4 0  9992
2 38045  51.9917  46.3972 0000595 330.2422 112.2278 12.62271217621632
GLOBALSTAR M097         
1 39072U 13005A   25152.84130903 -.00000086  00000+0  97998-4 0  9993
2 39072  52.0060 321.1453 0000647 115.3151 244.7783 12.62272321568876
GLOBALSTAR M093         
1 39073U 13005B   25152.81487446 -.00000078  00000+0  14311-3 0  9996
2 39073  51.9823 314.5528 0000707 120.1844 239.9093 12.62265029568823
